start=new Date('2022-07-18T00:00:00.000Z').valueOf();
sats=[{"MEAN_MOTION_DOT":"-0.00000915","MEAN_MOTION_DDOT":"0.0000000000000","DECAY_DATE":null,"MEAN_ANOMALY":"299.5753","OBJECT_NAME":"STARLINK-2089","SEMIMAJOR_AXIS":"6925.347","ARG_OF_PERICENTER":"60.5394","EPOCH":"2022-07-17T21:43:02.929728","REF_FRAME":"TEME","EPHEMERIS_TYPE":"0","PERIAPSIS":"546.112","CLASSIFICATION_TYPE":"U","MEAN_ELEMENT_THEORY":"SGP4","REV_AT_EPOCH":"8252","TLE_LINE2":"2 47372  53.0547 271.0641 0001588  60.5394 299.5753 15.06400610 82529","PERIOD":"95.592","CENTER_NAME":"EARTH","INCLINATION":"53.0547","SITE":"AFETR","FILE":"3516387","RCS_SIZE":"LARGE","TIME_SYSTEM":"UTC","OBJECT_TYPE":"PAYLOAD","COUNTRY_CODE":"US","TLE_LINE1":"1 47372U 21005Z   22198.90489502 -.00000915  00000-0 -42537-4 0  9992","MEAN_MOTION":"15.06400610","ELEMENT_SET_NO":"999","RA_OF_ASC_NODE":"271.0641","GP_ID":"208337222","BSTAR":"-0.00004253700000","OBJECT_ID":"2021-005Z","LAUNCH_DATE":"2021-01-20","ECCENTRICITY":"0.00015880","APOAPSIS":"548.311","NORAD_CAT_ID":"47372"},{"COUNTRY_CODE":"US","OBJECT_TYPE":"PAYLOAD","ELEMENT_SET_NO":"999","MEAN_MOTION":"15.06410057","TLE_LINE1":"1 47373U 21005AA  22198.90623861  .00002971  00000-0  21822-3 0  9996","BSTAR":"0.00021822000000","GP_ID":"208337472","RA_OF_ASC_NODE":"275.7315","NORAD_CAT_ID":"47373","APOAPSIS":"548.062","ECCENTRICITY":"0.00012700","LAUNCH_DATE":"2021-01-20","OBJECT_ID":"2021-005AA","ARG_OF_PERICENTER":"66.4723","SEMIMAJOR_AXIS":"6925.318","OBJECT_NAME":"STARLINK-2092","MEAN_ANOMALY":"293.6399","DECAY_DATE":null,"MEAN_MOTION_DOT":"0.00002971","MEAN_MOTION_DDOT":"0.0000000000000","MEAN_ELEMENT_THEORY":"SGP4","PERIAPSIS":"546.303","CLASSIFICATION_TYPE":"U","EPHEMERIS_TYPE":"0","REF_FRAME":"TEME","EPOCH":"2022-07-17T21:44:59.015904","RCS_SIZE":"LARGE","TIME_SYSTEM":"UTC","FILE":"3516387","INCLINATION":"53.0538","SITE":"AFETR","CENTER_NAME":"EARTH","PERIOD":"95.592","TLE_LINE2":"2 47373  53.0538 275.7315 0001270  66.4723 293.6399 15.06410057 82468","REV_AT_EPOCH":"8246"},{"ELEMENT_SET_NO":"999","TLE_LINE1":"1 47374U 21005AB  22198.66202022 -.00000852  00000-0 -38335-4 0  9998","MEAN_MOTION":"15.06396156","OBJECT_TYPE":"PAYLOAD","COUNTRY_CODE":"US","ECCENTRICITY":"0.00015020","OBJECT_ID":"2021-005AB","LAUNCH_DATE":"2021-01-20","NORAD_CAT_ID":"47374","APOAPSIS":"548.266","RA_OF_ASC_NODE":"276.8229","BSTAR":"-0.00003833500000","GP_ID":"208338222","MEAN_ANOMALY":"296.8249","OBJECT_NAME":"STARLINK-2093","MEAN_MOTION_DDOT":"0.0000000000000","MEAN_MOTION_DOT":"-0.00000852","DECAY_DATE":null,"SEMIMAJOR_AXIS":"6925.360","ARG_OF_PERICENTER":"63.2894","PERIOD":"95.592","CENTER_NAME":"EARTH","INCLINATION":"53.0525","SITE":"AFETR","REV_AT_EPOCH":"8242","TLE_LINE2":"2 47374  53.0525 276.8229 0001502  63.2894 296.8249 15.06396156 82421","FILE":"3516387","TIME_SYSTEM":"UTC","RCS_SIZE":"LARGE","PERIAPSIS":"546.185","CLASSIFICATION_TYPE":"U","EPOCH":"2022-07-17T15:53:18.547008","EPHEMERIS_TYPE":"0","REF_FRAME":"TEME","MEAN_ELEMENT_THEORY":"SGP4"},{"MEAN_MOTION":"15.06403553","TLE_LINE1":"1 47375U 21005AC  22198.73300188 -.00000157  00000-0  83459-5 0  9994","ELEMENT_SET_NO":"999","OBJECT_TYPE":"PAYLOAD","COUNTRY_CODE":"US","LAUNCH_DATE":"2021-01-20","OBJECT_ID":"2021-005AC","ECCENTRICITY":"0.00014320","APOAPSIS":"548.194","NORAD_CAT_ID":"47375","RA_OF_ASC_NODE":"276.5198","GP_ID":"208338464","BSTAR":"0.00000834590000","DECAY_DATE":null,"MEAN_MOTION_DDOT":"0.0000000000000","MEAN_MOTION_DOT":"-0.00000157","OBJECT_NAME":"STARLINK-2094","MEAN_ANOMALY":"294.4063","ARG_OF_PERICENTER":"65.7075","SEMIMAJOR_AXIS":"6925.338","TLE_LINE2":"2 47375  53.0526 276.5198 0001432  65.7075 294.4063 15.06403553 82434","REV_AT_EPOCH":"8243","SITE":"AFETR","INCLINATION":"53.0526","PERIOD":"95.592","CENTER_NAME":"EARTH","TIME_SYSTEM":"UTC","RCS_SIZE":"LARGE","FILE":"3516387","REF_FRAME":"TEME","EPHEMERIS_TYPE":"0","EPOCH":"2022-07-17T17:35:31.362432","CLASSIFICATION_TYPE":"U","PERIAPSIS":"546.211","MEAN_ELEMENT_THEORY":"SGP4"},{"EPHEMERIS_TYPE":"0","REF_FRAME":"TEME","EPOCH":"2022-07-17T17:40:48.691488","CLASSIFICATION_TYPE":"U","PERIAPSIS":"545.981","MEAN_ELEMENT_THEORY":"SGP4","TLE_LINE2":"2 47376  53.0527 276.5024 0001782  69.8282 290.2899 15.06399336 82431","REV_AT_EPOCH":"8243","INCLINATION":"53.0527","SITE":"AFETR","CENTER_NAME":"EARTH","PERIOD":"95.592","TIME_SYSTEM":"UTC","RCS_SIZE":"LARGE","FILE":"3516387","DECAY_DATE":null,"MEAN_MOTION_DOT":"-0.00000634","MEAN_MOTION_DDOT":"0.0000000000000","OBJECT_NAME":"STARLINK-2096","MEAN_ANOMALY":"290.2899","ARG_OF_PERICENTER":"69.8282","SEMIMAJOR_AXIS":"6925.351","RA_OF_ASC_NODE":"276.5024","BSTAR":"-0.00002364100000","GP_ID":"208337722","LAUNCH_DATE":"2021-01-20","OBJECT_ID":"2021-005AD","ECCENTRICITY":"0.00017820","APOAPSIS":"548.450","NORAD_CAT_ID":"47376","OBJECT_TYPE":"PAYLOAD","COUNTRY_CODE":"US","MEAN_MOTION":"15.06399336","TLE_LINE1":"1 47376U 21005AD  22198.73667467 -.00000634  00000-0 -23641-4 0  9998","ELEMENT_SET_NO":"999"},{"ELEMENT_SET_NO":"999","TLE_LINE1":"1 47377U 21005AE  22198.72194148 -.00000669  00000-0 -26000-4 0  9999","MEAN_MOTION":"15.06394173","OBJECT_TYPE":"PAYLOAD","COUNTRY_CODE":"US","ECCENTRICITY":"0.00013750","OBJECT_ID":"2021-005AE","LAUNCH_DATE":"2021-01-20","NORAD_CAT_ID":"47377","APOAPSIS":"548.184","RA_OF_ASC_NODE":"276.5760","BSTAR":"-0.00002600000000","GP_ID":"208337972","MEAN_ANOMALY":"281.4341","OBJECT_NAME":"STARLINK-2097","MEAN_MOTION_DDOT":"0.0000000000000","MEAN_MOTION_DOT":"-0.00000669","DECAY_DATE":null,"SEMIMAJOR_AXIS":"6925.366","ARG_OF_PERICENTER":"78.6803","PERIOD":"95.593","CENTER_NAME":"EARTH","INCLINATION":"53.0527","SITE":"AFETR","REV_AT_EPOCH":"8243","TLE_LINE2":"2 47377  53.0527 276.5760 0001375  78.6803 281.4341 15.06394173 82432","FILE":"3516387","RCS_SIZE":"LARGE","TIME_SYSTEM":"UTC","PERIAPSIS":"546.279","CLASSIFICATION_TYPE":"U","EPOCH":"2022-07-17T17:19:35.743872","REF_FRAME":"TEME","EPHEMERIS_TYPE":"0","MEAN_ELEMENT_THEORY":"SGP4"},{"DECAY_DATE":null,"MEAN_MOTION_DDOT":"0.0000000000000","MEAN_MOTION_DOT":"0.00002935","OBJECT_NAME":"STARLINK-2098","MEAN_ANOMALY":"293.5168","ARG_OF_PERICENTER":"66.5985","SEMIMAJOR_AXIS":"6925.317","EPHEMERIS_TYPE":"0","REF_FRAME":"TEME","EPOCH":"2022-07-17T13:57:54.280800","CLASSIFICATION_TYPE":"U","PERIAPSIS":"546.100","MEAN_ELEMENT_THEORY":"SGP4","TLE_LINE2":"2 47378  53.0535 237.2051 0001562  66.5985 293.5168 15.06410356 82976","REV_AT_EPOCH":"8297","SITE":"AFETR","INCLINATION":"53.0535","PERIOD":"95.591","CENTER_NAME":"EARTH","RCS_SIZE":"LARGE","TIME_SYSTEM":"UTC","FILE":"3516387","OBJECT_TYPE":"PAYLOAD","COUNTRY_CODE":"US","MEAN_MOTION":"15.06410356","TLE_LINE1":"1 47378U 21005AF  22198.58187825  .00002935  00000-0  21577-3 0  9997","ELEMENT_SET_NO":"999","RA_OF_ASC_NODE":"237.2051","GP_ID":"208338722","BSTAR":"0.00021577000000","LAUNCH_DATE":"2021-01-20","OBJECT_ID":"2021-005AF","ECCENTRICITY":"0.00015620","APOAPSIS":"548.264","NORAD_CAT_ID":"47378"},{"ECCENTRICITY":"0.00016710","LAUNCH_DATE":"2021-01-20","OBJECT_ID":"2021-005AG","NORAD_CAT_ID":"47379","APOAPSIS":"548.355","RA_OF_ASC_NODE":"237.4675","BSTAR":"0.00008919000000","GP_ID":"208281801","ELEMENT_SET_NO":"999","MEAN_MOTION":"15.06405074","TLE_LINE1":"1 47379U 21005AG  22198.52291203  .00001047  00000-0  89190-4 0  9997","OBJECT_TYPE":"PAYLOAD","COUNTRY_CODE":"US","INCLINATION":"53.0534","SITE":"AFETR","PERIOD":"95.592","CENTER_NAME":"EARTH","TLE_LINE2":"2 47379  53.0534 237.4675 0001671  58.4636 301.6516 15.06405074 82962","REV_AT_EPOCH":"8296","RCS_SIZE":"LARGE","TIME_SYSTEM":"UTC","FILE":"3515988","PERIAPSIS":"546.041","CLASSIFICATION_TYPE":"U","REF_FRAME":"TEME","EPHEMERIS_TYPE":"0","EPOCH":"2022-07-17T12:32:59.599392","MEAN_ELEMENT_THEORY":"SGP4","OBJECT_NAME":"STARLINK-2099","MEAN_ANOMALY":"301.6516","DECAY_DATE":null,"MEAN_MOTION_DOT":"0.00001047","MEAN_MOTION_DDOT":"0.0000000000000","ARG_OF_PERICENTER":"58.4636","SEMIMAJOR_AXIS":"6925.333"},{"ECCENTRICITY":"0.00015820","LAUNCH_DATE":"2021-01-20","OBJECT_ID":"2021-005AH","NORAD_CAT_ID":"47380","APOAPSIS":"548.314","RA_OF_ASC_NODE":"247.0219","GP_ID":"208337223","BSTAR":"0.00000653230000","ELEMENT_SET_NO":"999","MEAN_MOTION":"15.06398528","TLE_LINE1":"1 47380U 21005AH  22198.61781475 -.00000184  00000-0  65323-5 0  9999","OBJECT_TYPE":"PAYLOAD","COUNTRY_CODE":"US","INCLINATION":"53.0535","SITE":"AFETR","CENTER_NAME":"EARTH","PERIOD":"95.592","TLE_LINE2":"2 47380  53.0535 247.0219 0001582  63.4812 296.6339 15.06398528 82847","REV_AT_EPOCH":"8284","RCS_SIZE":"LARGE","TIME_SYSTEM":"UTC","FILE":"3516387","PERIAPSIS":"546.122","CLASSIFICATION_TYPE":"U","REF_FRAME":"TEME","EPHEMERIS_TYPE":"0","EPOCH":"2022-07-17T14:49:39.194400","MEAN_ELEMENT_THEORY":"SGP4","OBJECT_NAME":"STARLINK-2100","MEAN_ANOMALY":"296.6339","DECAY_DATE":null,"MEAN_MOTION_DOT":"-0.00000184","MEAN_MOTION_DDOT":"0.0000000000000","ARG_OF_PERICENTER":"63.4812","SEMIMAJOR_AXIS":"6925.353"},{"OBJECT_TYPE":"PAYLOAD","COUNTRY_CODE":"US","TLE_LINE1":"1 47381U 21005AJ  22198.43490762  .00003770  00000-0  27182-3 0  9998","MEAN_MOTION":"15.06407653","ELEMENT_SET_NO":"999","RA_OF_ASC_NODE":"252.9375","GP_ID":"208308579","BSTAR":"0.00027182000000","OBJECT_ID":"2021-005AJ","LAUNCH_DATE":"2021-01-20","ECCENTRICITY":"0.00017930","APOAPSIS":"548.432","NORAD_CAT_ID":"47381","MEAN_MOTION_DDOT":"0.0000000000000","MEAN_MOTION_DOT":"0.00003770","DECAY_DATE":null,"MEAN_ANOMALY":"307.2590","OBJECT_NAME":"STARLINK-2101","SEMIMAJOR_AXIS":"6925.325","ARG_OF_PERICENTER":"52.8562","EPOCH":"2022-07-17T10:26:16.018368","EPHEMERIS_TYPE":"0","REF_FRAME":"TEME","PERIAPSIS":"545.948","CLASSIFICATION_TYPE":"U","MEAN_ELEMENT_THEORY":"SGP4","REV_AT_EPOCH":"8274","TLE_LINE2":"2 47381  53.0526 252.9375 0001793  52.8562 307.2590 15.06407653 82741","PERIOD":"95.592","CENTER_NAME":"EARTH","INCLINATION":"53.0526","SITE":"AFETR","FILE":"3516162","RCS_SIZE":"LARGE","TIME_SYSTEM":"UTC"}];
